QIANFAN-105             
1 66047U 25233Q   25310.75708823  .00000875  00000+0  35817-3 0  9995
2 66047  88.9952  66.1721 0015952 149.4519 210.7607 14.26330692  2915
QIANFAN-106             
1 66048U 25233R   25310.75713098  .00000858  00000+0  35101-3 0  9993
2 66048  88.9953  66.1722 0015815 149.1372 211.0755 14.26313958  2914
QIANFAN-107             
1 66049U 25233S   25310.75689718  .00000859  00000+0  35115-3 0  9991
2 66049  88.9952  66.1720 0016611 147.2801 212.9425 14.26342856  2916
QIANFAN-108             
1 66050U 25233T   25310.75662344  .00000860  00000+0  35182-3 0  9995
2 66050  88.9952  66.1720 0016578 148.9650 211.2527 14.26355908  2917
